{
  "norad_id": 61681,
  "name": "STARLINK-32426",
  "history": [
    {
      "epoch": "2026-03-28T21:37:07.929408Z",
      "apogee_km": 475.9981756025527,
      "perigee_km": 474.52346145996034,
      "latitude_deg": -4.100668815846578e-05,
      "longitude_deg": -148.5257610885223,
      "height_km": 475.74434715647726,
      "semi_major_axis_km": 6853.397818531256,
      "eccentricity": 0.00010759,
      "inclination_deg": 53.1622,
      "raan_deg": 2.0719,
      "arg_perigee_deg": 55.7204,
      "mean_anomaly_deg": 304.3898,
      "mean_motion_rev_day": 15.30184678
    },
    {
      "epoch": "2026-03-29T03:53:20.714784Z",
      "apogee_km": 476.2026694541137,
      "perigee_km": 474.31387371726487,
      "latitude_deg": -3.673804601872581e-05,
      "longitude_deg": 115.95006102573315,
      "height_km": 476.31492141415606,
      "semi_major_axis_km": 6853.3952715856885,
      "eccentricity": 0.0001378,
      "inclination_deg": 53.1624,
      "raan_deg": 0.8585,
      "arg_perigee_deg": 99.6582,
      "mean_anomaly_deg": 260.4574,
      "mean_motion_rev_day": 15.30185531
    }
  ]
}